      2.10          N: GNSS NAV DATA                        RINEX VERSION / TYPE
fic2rin                                 09/06/2022 00:18:09 PGM / RUN BY / DATE
                                                            END OF HEADER
22 22  9  5  8  0  0.0  .322312582284D-03  .670752342558D-11  .000000000000D+00
     .800000000000D+01 -.191250000000D+02  .433982362822D-08  .184559845135D+01
    -.110082328320D-05  .134403816191D-01  .896677374840D-05  .515373356056D+04
     .115200000000D+06 -.316649675369D-07  .290595263097D+01 -.402331352234D-06
     .962145220799D+00  .205437500000D+03 -.184517087843D+01 -.776746640330D-08
     .441446959466D-09  .100000000000D+01  .222600000000D+04  .000000000000D+00
     .240000000000D+01  .000000000000D+00 -.791624188423D-08  .800000000000D+01
     .108000000000D+06  .400000000000D+01
19 22  9  5  8  0  0.0  .206573400646D-03  .500222085975D-11  .000000000000D+00
     .170000000000D+02  .987187500000D+02  .411874299075D-08 -.205447666255D+01
     .534020364285D-05  .917274714448D-02  .477023422718D-05  .515372637749D+04
     .115200000000D+06 -.782310962677D-07 -.211675914751D+00  .130385160446D-06
     .976800842373D+00  .299437500000D+03  .216686975322D+01 -.796390315710D-08
     .103575742917D-09  .100000000000D+01  .222600000000D+04  .000000000000D+00
     .240000000000D+01  .000000000000D+00 -.153668224812D-07  .170000000000D+02
     .108000000000D+06  .400000000000D+01
20 22  9  5  8  0  0.0  .488982535899D-03 -.306954461848D-11  .000000000000D+00
     .130000000000D+02 -.121281250000D+03  .477341311753D-08  .899643792586D+00
    -.619888305664D-05  .477491086349D-02  .688619911671D-05  .515365062523D+04
     .115200000000D+06  .502914190292D-07  .161525629146D+01  .135973095894D-06
     .944348570743D+00  .237718750000D+03 -.310072486817D+01 -.826462996930D-08
    -.928610108910D-10  .100000000000D+01  .222600000000D+04  .000000000000D+00
     .240000000000D+01  .000000000000D+00 -.838190317154D-08  .130000000000D+02
     .108000000000D+06  .400000000000D+01
32 22  9  5  8  0  0.0 -.224112067372D-03 -.111413100967D-10  .000000000000D+00
     .350000000000D+02 -.253125000000D+02  .432375153018D-08  .275117839831D+01
    -.123120844364D-05  .608407845721D-02  .933185219765D-05  .515364021873D+04
     .115200000000D+06  .484287738800D-07  .281505855074D+01 -.763684511185D-07
     .958956682589D+00  .196125000000D+03 -.229111852951D+01 -.768817738630D-08
     .423231915022D-09  .100000000000D+01  .222600000000D+04  .000000000000D+00
     .240000000000D+01  .000000000000D+00  .465661287308D-09  .350000000000D+02
     .108000000000D+06  .400000000000D+01
30 22  9  5  8  0  0.0 -.536704435945D-03 -.341060513165D-12  .000000000000D+00
     .260000000000D+02  .137500000000D+02  .525664753190D-08 -.939128573286D+00
     .746920704842D-06  .594749778975D-02  .674091279507D-05  .515371010590D+04
     .115200000000D+06  .162050127983D-06 -.239873972624D+01  .391155481339D-07
     .935803426323D+00  .232406250000D+03 -.265439610792D+01 -.831141763248D-08
    -.389301930274D-10  .100000000000D+01  .222600000000D+04  .000000000000D+00
     .240000000000D+01  .000000000000D+00  .372529029846D-08  .260000000000D+02
     .108000000000D+06  .400000000000D+01
31 22  9  5  8  0  0.0 -.192231964320D-03 -.136424205266D-11  .000000000000D+00
     .830000000000D+02  .796875000000D+01  .486341686655D-08 -.137191673935D+01
     .249594449997D-06  .104938191362D-01  .626407563686D-05  .515356631851D+04
     .115200000000D+06  .115483999252D-06 -.238992420237D+01 -.163912773132D-06
     .954825995878D+00  .248281250000D+03  .420185534963D+00 -.805319259065D-08
     .585738684082D-10  .100000000000D+01  .222600000000D+04  .000000000000D+00
     .240000000000D+01  .000000000000D+00 -.135041773319D-07  .830000000000D+02
     .108000000000D+06  .400000000000D+01
29 22  9  5  8  0  0.0 -.548916868865D-03 -.329691829393D-11  .000000000000D+00
     .550000000000D+02  .108812500000D+03  .413945813933D-08  .196810186250D+01
     .567175447941D-05  .223804695997D-02  .553764402866D-05  .515365870285D+04
     .115200000000D+06  .670552253723D-07 -.242913164160D+00 -.987201929092D-07
     .980011539403D+00  .279437500000D+03  .243622353490D+01 -.804319217410D-08
     .667884962947D-10  .100000000000D+01  .222600000000D+04  .000000000000D+00
     .240000000000D+01  .000000000000D+00 -.102445483208D-07  .550000000000D+02
     .108000000000D+06  .400000000000D+01
17 22  9  5  8  0  0.0  .655934214592D-03  .397903932026D-11  .000000000000D+00
     .430000000000D+02  .879375000000D+02  .409838499990D-08  .205171124560D+01
     .442005693913D-05  .136706165504D-01  .494718551636D-05  .515361595345D+04
     .115200000000D+06  .251457095146D-06 -.256374614483D+00 -.147148966789D-06
     .977889310478D+00  .288468750000D+03 -.148261358821D+01 -.778175271266D-08
     .428589281035D-11  .100000000000D+01  .222600000000D+04  .000000000000D+00
     .240000000000D+01  .000000000000D+00 -.111758708954D-07  .430000000000D+02
     .108000000000D+06  .400000000000D+01
16 22  9  5  8  0  0.0 -.523147638887D-03 -.125055521494D-11  .000000000000D+00
     .880000000000D+02  .524375000000D+02  .429267880730D-08  .296463633161D+01
     .267662107944D-05  .127475105692D-01  .971369445324D-05  .515370639801D+04
     .115200000000D+06 -.223517417908D-07 -.127620750815D+01 -.143423676491D-06
     .967649821653D+00  .197562500000D+03  .730762746219D+00 -.759210195581D-08
    -.232866842696D-09  .100000000000D+01  .222600000000D+04  .000000000000D+00
     .340000000000D+01  .000000000000D+00 -.102445483208D-07  .880000000000D+02
     .108000000000D+06  .400000000000D+01
12 22  9  5  8  0  0.0 -.273420009762D-03 -.602540239925D-11  .000000000000D+00
     .890000000000D+02  .719375000000D+02  .435625288399D-08 -.153270130364D+01
     .393576920033D-05  .848072534427D-02  .960007309914D-05  .515374621582D+04
     .115200000000D+06  .912696123123D-07 -.129468636226D+01  .147148966789D-06
     .967803347591D+00  .198718750000D+03  .131472917673D+01 -.778853870961D-08
    -.293940815243D-09  .100000000000D+01  .222600000000D+04  .000000000000D+00
     .240000000000D+01  .000000000000D+00 -.125728547573D-07  .890000000000D+02
     .108000000000D+06  .400000000000D+01
10 22  9  5  8  0  0.0 -.191712751985D-05 -.170530256582D-11  .000000000000D+00
     .111000000000D+03 -.111437500000D+03  .396052211450D-08 -.219710104603D+01
    -.573694705963D-05  .787424319424D-02  .747665762901D-05  .515368453598D+04
     .115200000000D+06 -.558793544769D-08  .177339505577D+01 -.782310962677D-07
     .974772548881D+00  .243500000000D+03 -.251142425214D+01 -.764138972313D-08
     .503592405216D-10  .100000000000D+01  .222600000000D+04  .000000000000D+00
     .340000000000D+01  .000000000000D+00  .232830643654D-08  .111000000000D+03
     .108000000000D+06  .400000000000D+01
15 22  9  5  8  0  0.0 -.315429642797D-04  .306954461848D-11  .000000000000D+00
     .690000000000D+02 -.373750000000D+02  .513521390227D-08  .106205000450D+01
    -.187568366528D-05  .145021923818D-01  .981800258160D-05  .515361129189D+04
     .115200000000D+06 -.206753611565D-06  .269166643734D+01  .149011611938D-07
     .931179440710D+00  .181375000000D+03  .112801539889D+01 -.837677749783D-08
     .278940190407D-09  .100000000000D+01  .222600000000D+04  .000000000000D+00
     .240000000000D+01  .000000000000D+00 -.107102096081D-07  .690000000000D+02
     .108000000000D+06  .400000000000D+01
9  22  9  5  8  0  0.0 -.299908220768D-03  .454747350886D-11  .000000000000D+00
     .760000000000D+02 -.207500000000D+02  .451375944477D-08  .247722057352D+01
    -.964850187302D-06  .243990763556D-02  .909529626369D-05  .515376266861D+04
     .115200000000D+06 -.540167093277D-07  .280300778354D+01  .726431608200D-07
     .955195173496D+00  .200593750000D+03  .190661891785D+01 -.784104089654D-08
     .381801617856D-09  .100000000000D+01  .222600000000D+04  .000000000000D+00
     .240000000000D+01  .000000000000D+00  .139698386192D-08  .760000000000D+02
     .108000000000D+06  .400000000000D+01
7  22  9  5  8  0  0.0  .309928320348D-03 -.284217094304D-11  .000000000000D+00
     .430000000000D+02  .149375000000D+02  .498735060031D-08 -.841178853790D+00
     .109896063805D-05  .163817267166D-01  .683963298798D-05  .515363268852D+04
     .115200000000D+06  .128522515297D-06 -.240883521272D+01  .372529029846D-06
     .950669672991D+00  .241625000000D+03 -.224386576206D+01 -.830784605514D-08
    -.482162941165D-10  .100000000000D+01  .222600000000D+04  .000000000000D+00
     .240000000000D+01  .000000000000D+00 -.111758708954D-07  .430000000000D+02
     .108000000000D+06  .400000000000D+01
8  22  9  5  8  0  0.0 -.833380036056D-04 -.159161572810D-11  .000000000000D+00
     .940000000000D+02  .850625000000D+02  .452483133453D-08  .202728484684D+01
     .458024442196D-05  .748419912998D-02  .602193176746D-05  .515359212875D+04
     .115200000000D+06 -.115483999252D-06 -.341292070173D+00  .238418579102D-06
     .962514260902D+00  .263562500000D+03  .165065536579D+00 -.816033991091D-08
     .300012496725D-10  .100000000000D+01  .222600000000D+04  .000000000000D+00
     .240000000000D+01  .000000000000D+00  .512227416039D-08  .940000000000D+02
     .108000000000D+06  .400000000000D+01
18 22  9  5  8  0  0.0  .588884577155D-04 -.125055521494D-10  .000000000000D+00
     .174000000000D+03 -.353437500000D+02  .442732727309D-08  .103582474900D+00
    -.210478901863D-05  .279642222449D-02  .185519456863D-05  .515372591782D+04
     .115200000000D+06  .335276126862D-07  .747639058419D+00  .763684511185D-07
     .972306620519D+00  .349531250000D+03  .304831034643D+01 -.831106047474D-08
    -.175721605224D-09  .100000000000D+01  .222600000000D+04  .000000000000D+00
     .240000000000D+01  .000000000000D+00 -.838190317154D-08  .174000000000D+03
     .108000000000D+06  .400000000000D+01
